[{"OBJECT_NAME":"STARLINK-33743","OBJECT_ID":"2025-069H","EPOCH":"2026-02-13T22:04:11.382816","MEAN_MOTION":15.30212729,"ECCENTRICITY":0.00010267,"INCLINATION":53.1569,"RA_OF_ASC_NODE":253.0117,"ARG_OF_PERICENTER":116.3091,"MEAN_ANOMALY":243.8016,"EPHEMERIS_TYPE":0,"CLASSIFICATION_TYPE":"U","NORAD_CAT_ID":63440,"ELEMENT_SET_NO":999,"REV_AT_EPOCH":4965,"BSTAR":0.00051883439,"MEAN_MOTION_DOT":0.00015044,"MEAN_MOTION_DDOT":0},{"OBJECT_NAME":"STARLINK-33715","OBJECT_ID":"2025-069J","EPOCH":"2026-02-13T23:33:40.933728","MEAN_MOTION":15.30213193,"ECCENTRICITY":0.00012359,"INCLINATION":53.1576,"RA_OF_ASC_NODE":252.6834,"ARG_OF_PERICENTER":91.3858,"MEAN_ANOMALY":268.7284,"EPHEMERIS_TYPE":0,"CLASSIFICATION_TYPE":"U","NORAD_CAT_ID":63441,"ELEMENT_SET_NO":999,"REV_AT_EPOCH":4977,"BSTAR":0.00071132826,"MEAN_MOTION_DOT":0.00020776,"MEAN_MOTION_DDOT":0},{"OBJECT_NAME":"STARLINK-33762","OBJECT_ID":"2025-069K","EPOCH":"2026-02-13T23:30:38.729952","MEAN_MOTION":15.30208284,"ECCENTRICITY":0.00013577,"INCLINATION":53.1577,"RA_OF_ASC_NODE":252.6772,"ARG_OF_PERICENTER":90.4641,"MEAN_ANOMALY":269.6515,"EPHEMERIS_TYPE":0,"CLASSIFICATION_TYPE":"U","NORAD_CAT_ID":63442,"ELEMENT_SET_NO":999,"REV_AT_EPOCH":4977,"BSTAR":0.000688399,"MEAN_MOTION_DOT":0.0002009,"MEAN_MOTION_DDOT":0},{"OBJECT_NAME":"STARLINK-33753","OBJECT_ID":"2025-069L","EPOCH":"2026-02-13T13:51:07.808544","MEAN_MOTION":15.30199875,"ECCENTRICITY":0.00022481,"INCLINATION":53.1574,"RA_OF_ASC_NODE":254.4257,"ARG_OF_PERICENTER":132.1437,"MEAN_ANOMALY":227.9755,"EPHEMERIS_TYPE":0,"CLASSIFICATION_TYPE":"U","NORAD_CAT_ID":63443,"ELEMENT_SET_NO":999,"REV_AT_EPOCH":4970,"BSTAR":0.00067224033,"MEAN_MOTION_DOT":0.00019603,"MEAN_MOTION_DDOT":0},{"OBJECT_NAME":"STARLINK-33747","OBJECT_ID":"2025-069M","EPOCH":"2026-02-13T23:06:19.520352","MEAN_MOTION":15.30220119,"ECCENTRICITY":2.443e-5,"INCLINATION":53.1585,"RA_OF_ASC_NODE":252.5684,"ARG_OF_PERICENTER":326.117,"MEAN_ANOMALY":33.9815,"EPHEMERIS_TYPE":0,"CLASSIFICATION_TYPE":"U","NORAD_CAT_ID":63444,"ELEMENT_SET_NO":999,"REV_AT_EPOCH":4972,"BSTAR":0.00099261128,"MEAN_MOTION_DOT":0.00029173,"MEAN_MOTION_DDOT":0},{"OBJECT_NAME":"STARLINK-33659","OBJECT_ID":"2025-069N","EPOCH":"2026-02-14T04:43:11.807616","MEAN_MOTION":15.30203155,"ECCENTRICITY":0.00012271,"INCLINATION":53.1566,"RA_OF_ASC_NODE":251.8957,"ARG_OF_PERICENTER":90.4936,"MEAN_ANOMALY":269.6205,"EPHEMERIS_TYPE":0,"CLASSIFICATION_TYPE":"U","NORAD_CAT_ID":63445,"ELEMENT_SET_NO":999,"REV_AT_EPOCH":4975,"BSTAR":0.0010006876,"MEAN_MOTION_DOT":0.00029399,"MEAN_MOTION_DDOT":0},{"OBJECT_NAME":"STARLINK-33746","OBJECT_ID":"2025-069P","EPOCH":"2026-02-13T21:48:59.283936","MEAN_MOTION":15.30210768,"ECCENTRICITY":5.378e-5,"INCLINATION":53.1583,"RA_OF_ASC_NODE":252.941,"ARG_OF_PERICENTER":132.5414,"MEAN_ANOMALY":227.5632,"EPHEMERIS_TYPE":0,"CLASSIFICATION_TYPE":"U","NORAD_CAT_ID":63446,"ELEMENT_SET_NO":999,"REV_AT_EPOCH":4971,"BSTAR":0.00068686558,"MEAN_MOTION_DOT":0.00020046,"MEAN_MOTION_DDOT":0},{"OBJECT_NAME":"STARLINK-33799","OBJECT_ID":"2025-069Q","EPOCH":"2026-02-13T22:23:56.335488","MEAN_MOTION":15.30241466,"ECCENTRICITY":0.00019778,"INCLINATION":53.1568,"RA_OF_ASC_NODE":253.1011,"ARG_OF_PERICENTER":165.5961,"MEAN_ANOMALY":194.5096,"EPHEMERIS_TYPE":0,"CLASSIFICATION_TYPE":"U","NORAD_CAT_ID":63447,"ELEMENT_SET_NO":999,"REV_AT_EPOCH":4965,"BSTAR":0.00085877394,"MEAN_MOTION_DOT":0.00025194,"MEAN_MOTION_DDOT":0},{"OBJECT_NAME":"STARLINK-33797","OBJECT_ID":"2025-069R","EPOCH":"2026-02-13T22:57:12.472704","MEAN_MOTION":15.3021671,"ECCENTRICITY":4.658e-5,"INCLINATION":53.1584,"RA_OF_ASC_NODE":252.5276,"ARG_OF_PERICENTER":151.3522,"MEAN_ANOMALY":208.7504,"EPHEMERIS_TYPE":0,"CLASSIFICATION_TYPE":"U","NORAD_CAT_ID":63448,"ELEMENT_SET_NO":999,"REV_AT_EPOCH":4972,"BSTAR":0.00087239388,"MEAN_MOTION_DOT":0.00025581,"MEAN_MOTION_DDOT":0},{"OBJECT_NAME":"STARLINK-33798","OBJECT_ID":"2025-069S","EPOCH":"2026-02-13T17:46:22.135008","MEAN_MOTION":15.30143476,"ECCENTRICITY":9.967e-5,"INCLINATION":53.1555,"RA_OF_ASC_NODE":254.0133,"ARG_OF_PERICENTER":88.2243,"MEAN_ANOMALY":271.8871,"EPHEMERIS_TYPE":0,"CLASSIFICATION_TYPE":"U","NORAD_CAT_ID":63449,"ELEMENT_SET_NO":999,"REV_AT_EPOCH":4946,"BSTAR":0.00022748802,"MEAN_MOTION_DOT":6.373e-5,"MEAN_MOTION_DDOT":0},{"OBJECT_NAME":"STARLINK-33736","OBJECT_ID":"2025-069T","EPOCH":"2026-02-13T22:48:05.486400","MEAN_MOTION":15.30210537,"ECCENTRICITY":9.113e-5,"INCLINATION":53.1584,"RA_OF_ASC_NODE":252.4868,"ARG_OF_PERICENTER":97.5962,"MEAN_ANOMALY":262.5142,"EPHEMERIS_TYPE":0,"CLASSIFICATION_TYPE":"U","NORAD_CAT_ID":63450,"ELEMENT_SET_NO":999,"REV_AT_EPOCH":4972,"BSTAR":0.00083537511,"MEAN_MOTION_DOT":0.00024472,"MEAN_MOTION_DDOT":0},{"OBJECT_NAME":"STARLINK-33740","OBJECT_ID":"2025-069U","EPOCH":"2026-02-13T21:44:25.823616","MEAN_MOTION":15.30211347,"ECCENTRICITY":0.0001249,"INCLINATION":53.1587,"RA_OF_ASC_NODE":252.9173,"ARG_OF_PERICENTER":128.946,"MEAN_ANOMALY":231.1652,"EPHEMERIS_TYPE":0,"CLASSIFICATION_TYPE":"U","NORAD_CAT_ID":63451,"ELEMENT_SET_NO":999,"REV_AT_EPOCH":4965,"BSTAR":0.00075561814,"MEAN_MOTION_DOT":0.00022094,"MEAN_MOTION_DDOT":0},{"OBJECT_NAME":"STARLINK-33763","OBJECT_ID":"2025-069V","EPOCH":"2026-02-13T21:21:39.824064","MEAN_MOTION":15.30211162,"ECCENTRICITY":0.00012428,"INCLINATION":53.1569,"RA_OF_ASC_NODE":252.812,"ARG_OF_PERICENTER":79.4037,"MEAN_ANOMALY":280.7104,"EPHEMERIS_TYPE":0,"CLASSIFICATION_TYPE":"U","NORAD_CAT_ID":63452,"ELEMENT_SET_NO":999,"REV_AT_EPOCH":4976,"BSTAR":0.00075223642,"MEAN_MOTION_DOT":0.00021994,"MEAN_MOTION_DDOT":0},{"OBJECT_NAME":"STARLINK-33784","OBJECT_ID":"2025-069W","EPOCH":"2026-02-13T23:56:30.435936","MEAN_MOTION":15.3020662,"ECCENTRICITY":9.642e-5,"INCLINATION":53.1553,"RA_OF_ASC_NODE":252.7855,"ARG_OF_PERICENTER":97.6431,"MEAN_ANOMALY":262.4679,"EPHEMERIS_TYPE":0,"CLASSIFICATION_TYPE":"U","NORAD_CAT_ID":63453,"ELEMENT_SET_NO":999,"REV_AT_EPOCH":4977,"BSTAR":0.00084293784,"MEAN_MOTION_DOT":0.00024694,"MEAN_MOTION_DDOT":0},{"OBJECT_NAME":"STARLINK-33768","OBJECT_ID":"2025-069X","EPOCH":"2026-02-13T23:13:54.541632","MEAN_MOTION":15.30211698,"ECCENTRICITY":0.00019618,"INCLINATION":53.1571,"RA_OF_ASC_NODE":252.5866,"ARG_OF_PERICENTER":226.745,"MEAN_ANOMALY":133.3387,"EPHEMERIS_TYPE":0,"CLASSIFICATION_TYPE":"U","NORAD_CAT_ID":63454,"ELEMENT_SET_NO":999,"REV_AT_EPOCH":4977,"BSTAR":0.00076704503,"MEAN_MOTION_DOT":0.00022436,"MEAN_MOTION_DDOT":0},{"OBJECT_NAME":"STARLINK-33761","OBJECT_ID":"2025-069Y","EPOCH":"2026-02-13T23:00:14.435424","MEAN_MOTION":15.30225484,"ECCENTRICITY":9.265e-5,"INCLINATION":53.1586,"RA_OF_ASC_NODE":252.528,"ARG_OF_PERICENTER":202.0231,"MEAN_ANOMALY":158.073,"EPHEMERIS_TYPE":0,"CLASSIFICATION_TYPE":"U","NORAD_CAT_ID":63455,"ELEMENT_SET_NO":999,"REV_AT_EPOCH":4977,"BSTAR":0.0012781852,"MEAN_MOTION_DOT":0.00037719,"MEAN_MOTION_DDOT":0},{"OBJECT_NAME":"STARLINK-33737","OBJECT_ID":"2025-069Z","EPOCH":"2026-02-12T23:38:33.987840","MEAN_MOTION":15.30199387,"ECCENTRICITY":0.00012172,"INCLINATION":53.1572,"RA_OF_ASC_NODE":257.1132,"ARG_OF_PERICENTER":81.3793,"MEAN_ANOMALY":278.7346,"EPHEMERIS_TYPE":0,"CLASSIFICATION_TYPE":"U","NORAD_CAT_ID":63456,"ELEMENT_SET_NO":999,"REV_AT_EPOCH":4951,"BSTAR":0.0005976767,"MEAN_MOTION_DOT":0.00017383,"MEAN_MOTION_DDOT":0},{"OBJECT_NAME":"STARLINK-33795","OBJECT_ID":"2025-069AA","EPOCH":"2026-02-13T23:48:52.579008","MEAN_MOTION":15.30211143,"ECCENTRICITY":0.0001151,"INCLINATION":53.1571,"RA_OF_ASC_NODE":252.7454,"ARG_OF_PERICENTER":95.3899,"MEAN_ANOMALY":264.7233,"EPHEMERIS_TYPE":0,"CLASSIFICATION_TYPE":"U","NORAD_CAT_ID":63457,"ELEMENT_SET_NO":999,"REV_AT_EPOCH":4966,"BSTAR":0.0010337698,"MEAN_MOTION_DOT":0.00030394,"MEAN_MOTION_DDOT":0},{"OBJECT_NAME":"STARLINK-33756","OBJECT_ID":"2025-069AB","EPOCH":"2026-02-13T23:53:25.782720","MEAN_MOTION":15.30220595,"ECCENTRICITY":0.00010995,"INCLINATION":53.1563,"RA_OF_ASC_NODE":252.7565,"ARG_OF_PERICENTER":83.3085,"MEAN_ANOMALY":276.8041,"EPHEMERIS_TYPE":0,"CLASSIFICATION_TYPE":"U","NORAD_CAT_ID":63458,"ELEMENT_SET_NO":999,"REV_AT_EPOCH":4977,"BSTAR":0.00081991657,"MEAN_MOTION_DOT":0.00024018,"MEAN_MOTION_DDOT":0},{"OBJECT_NAME":"STARLINK-33780","OBJECT_ID":"2025-069AC","EPOCH":"2026-02-13T23:04:48.517824","MEAN_MOTION":15.30206714,"ECCENTRICITY":0.00012251,"INCLINATION":53.1578,"RA_OF_ASC_NODE":252.5444,"ARG_OF_PERICENTER":83.4107,"MEAN_ANOMALY":276.7033,"EPHEMERIS_TYPE":0,"CLASSIFICATION_TYPE":"U","NORAD_CAT_ID":63459,"ELEMENT_SET_NO":999,"REV_AT_EPOCH":4966,"BSTAR":0.0010672585,"MEAN_MOTION_DOT":0.0003139,"MEAN_MOTION_DDOT":0},{"OBJECT_NAME":"STARLINK-33679","OBJECT_ID":"2025-070A","EPOCH":"2026-02-14T00:32:46.201344","MEAN_MOTION":15.27597639,"ECCENTRICITY":0.00014981,"INCLINATION":43.0049,"RA_OF_ASC_NODE":33.7737,"ARG_OF_PERICENTER":175.086,"MEAN_ANOMALY":185.0006,"EPHEMERIS_TYPE":0,"CLASSIFICATION_TYPE":"U","NORAD_CAT_ID":63460,"ELEMENT_SET_NO":999,"REV_AT_EPOCH":4935,"BSTAR":0.00096373458,"MEAN_MOTION_DOT":0.00026367,"MEAN_MOTION_DDOT":0},{"OBJECT_NAME":"STARLINK-33706","OBJECT_ID":"2025-070B","EPOCH":"2026-02-14T00:38:19.092768","MEAN_MOTION":15.27597942,"ECCENTRICITY":0.00015499,"INCLINATION":43.0026,"RA_OF_ASC_NODE":33.771,"ARG_OF_PERICENTER":270.7215,"MEAN_ANOMALY":89.3459,"EPHEMERIS_TYPE":0,"CLASSIFICATION_TYPE":"U","NORAD_CAT_ID":63461,"ELEMENT_SET_NO":999,"REV_AT_EPOCH":4935,"BSTAR":0.00083292621,"MEAN_MOTION_DOT":0.00022741,"MEAN_MOTION_DDOT":0},{"OBJECT_NAME":"STARLINK-33691","OBJECT_ID":"2025-070C","EPOCH":"2026-02-14T00:58:27.016608","MEAN_MOTION":15.27601478,"ECCENTRICITY":0.00017084,"INCLINATION":43.0001,"RA_OF_ASC_NODE":33.0046,"ARG_OF_PERICENTER":261.6404,"MEAN_ANOMALY":98.4254,"EPHEMERIS_TYPE":0,"CLASSIFICATION_TYPE":"U","NORAD_CAT_ID":63462,"ELEMENT_SET_NO":999,"REV_AT_EPOCH":4931,"BSTAR":0.0012045825,"MEAN_MOTION_DOT":0.00033056,"MEAN_MOTION_DDOT":0}]
